{"type": "FeatureCollection", "features": [{"type": "Feature", "properties": {"norad_id": 24876, "name": "GPS BIIR-2  (PRN 13)", "group": "gnss", "lat": 53.070017603715, "lon": -138.50637745427943, "alt_km": 20003.44831873419, "timestamp": "2025-12-15T20:48:54.126617+00:00", "meta": {"OBJECT_NAME": "GPS BIIR-2  (PRN 13)", "OBJECT_ID": "1997-035A", "EPOCH": "2025-12-14T05:28:55.073280", "MEAN_MOTION": 2.00563668, "ECCENTRICITY": 0.0096778, "INCLINATION": 55.8959, "RA_OF_ASC_NODE": 105.8106, "ARG_OF_PERICENTER": 56.9864, "MEAN_ANOMALY": 303.9153, "EPHEMERIS_TYPE": 0, "CLASSIFICATION_TYPE": "U", "NORAD_CAT_ID": 24876, "ELEMENT_SET_NO": 999, "REV_AT_EPOCH": 20824, "BSTAR": 0, "MEAN_MOTION_DOT": -5e-08, "MEAN_MOTION_DDOT": 0}, "tle": {"line1": "1 24876U 97035A   25348.22841520 -.00000005  00000+0  00000+0 0  9991", "line2": "2 24876  55.8959 105.8106 0096778  56.9864 303.9153  2.00563668208242"}}, "geometry": {"type": "Point", "coordinates": [-138.50637745427943, 53.070017603715]}}, {"type": "Feature", "properties": {"norad_id": 26360, "name": "GPS BIIR-4  (PRN 20)", "group": "gnss", "lat": -12.986542077705206, "lon": -143.99430444471378, "alt_km": 20112.080221441196, "timestamp": "2025-12-15T20:48:54.126659+00:00", "meta": {"OBJECT_NAME": "GPS BIIR-4  (PRN 20)", "OBJECT_ID": "2000-025A", "EPOCH": "2025-12-14T20:00:34.863840", "MEAN_MOTION": 2.00567621, "ECCENTRICITY": 0.00388872, "INCLINATION": 55.0464, "RA_OF_ASC_NODE": 26.7531, "ARG_OF_PERICENTER": 242.1971, "MEAN_ANOMALY": 287.7489, "EPHEMERIS_TYPE": 0, "CLASSIFICATION_TYPE": "U", "NORAD_CAT_ID": 26360, "ELEMENT_SET_NO": 999, "REV_AT_EPOCH": 18757, "BSTAR": 0, "MEAN_MOTION_DOT": -9.4e-07, "MEAN_MOTION_DDOT": 0}, "tle": {"line1": "1 26360U 00025A   25348.83373685 -.00000094  00000+0  00000+0 0  9991", "line2": "2 26360  55.0464  26.7531 0038887 242.1971 287.7489  2.00567621187579"}}, "geometry": {"type": "Point", "coordinates": [-143.99430444471378, -12.986542077705206]}}, {"type": "Feature", "properties": {"norad_id": 26407, "name": "GPS BIIR-5  (PRN 22)", "group": "gnss", "lat": 29.65700915870957, "lon": -113.95203207597638, "alt_km": 20204.965234484895, "timestamp": "2025-12-15T20:48:54.126678+00:00", "meta": {"OBJECT_NAME": "GPS BIIR-5  (PRN 22)", "OBJECT_ID": "2000-040A", "EPOCH": "2025-12-14T13:17:49.888896", "MEAN_MOTION": 2.00568039, "ECCENTRICITY": 0.01259105, "INCLINATION": 54.8904, "RA_OF_ASC_NODE": 222.4968, "ARG_OF_PERICENTER": 301.8439, "MEAN_ANOMALY": 225.766, "EPHEMERIS_TYPE": 0, "CLASSIFICATION_TYPE": "U", "NORAD_CAT_ID": 26407, "ELEMENT_SET_NO": 999, "REV_AT_EPOCH": 18624, "BSTAR": 0, "MEAN_MOTION_DOT": 3.9e-07, "MEAN_MOTION_DDOT": 0}, "tle": {"line1": "1 26407U 00040A   25348.55404964  .00000039  00000+0  00000+0 0  9992", "line2": "2 26407  54.8904 222.4968 0125910 301.8439 225.7660  2.00568039186242"}}, "geometry": {"type": "Point", "coordinates": [-113.95203207597638, 29.65700915870957]}}, {"type": "Feature", "properties": {"norad_id": 27663, "name": "GPS BIIR-8  (PRN 16)", "group": "gnss", "lat": 5.563359983272851, "lon": 38.340602582347984, "alt_km": 20380.936082624663, "timestamp": "2025-12-15T20:48:54.126693+00:00", "meta": {"OBJECT_NAME": "GPS BIIR-8  (PRN 16)", "OBJECT_ID": "2003-005A", "EPOCH": "2025-12-14T15:32:18.245760", "MEAN_MOTION": 2.00570858, "ECCENTRICITY": 0.01475389, "INCLINATION": 54.9229, "RA_OF_ASC_NODE": 222.3024, "ARG_OF_PERICENTER": 51.8264, "MEAN_ANOMALY": 319.116, "EPHEMERIS_TYPE": 0, "CLASSIFICATION_TYPE": "U", "NORAD_CAT_ID": 27663, "ELEMENT_SET_NO": 999, "REV_AT_EPOCH": 16761, "BSTAR": 0, "MEAN_MOTION_DOT": 4.1e-07, "MEAN_MOTION_DDOT": 0}, "tle": {"line1": "1 27663U 03005A   25348.64743340  .00000041  00000+0  00000+0 0  9998", "line2": "2 27663  54.9229 222.3024 0147538  51.8264 319.1160  2.00570858167613"}}, "geometry": {"type": "Point", "coordinates": [38.340602582347984, 5.563359983272851]}}, {"type": "Feature", "properties": {"norad_id": 28190, "name": "GPS BIIR-11 (PRN 19)", "group": "gnss", "lat": -23.592658790075802, "lon": -94.73217304209719, "alt_km": 20461.049228274205, "timestamp": "2025-12-15T20:48:54.126711+00:00", "meta": {"OBJECT_NAME": "GPS BIIR-11 (PRN 19)", "OBJECT_ID": "2004-009A", "EPOCH": "2025-12-14T15:49:47.343936", "MEAN_MOTION": 2.00560762, "ECCENTRICITY": 0.01083648, "INCLINATION": 54.9839, "RA_OF_ASC_NODE": 283.1415, "ARG_OF_PERICENTER": 167.6892, "MEAN_ANOMALY": 10.6801, "EPHEMERIS_TYPE": 0, "CLASSIFICATION_TYPE": "U", "NORAD_CAT_ID": 28190, "ELEMENT_SET_NO": 999, "REV_AT_EPOCH": 15924, "BSTAR": 0, "MEAN_MOTION_DOT": -7.9e-07, "MEAN_MOTION_DDOT": 0}, "tle": {"line1": "1 28190U 04009A   25348.65957574 -.00000079  00000+0  00000+0 0  9998", "line2": "2 28190  54.9839 283.1415 0108364 167.6892  10.6801  2.00560762159240"}}, "geometry": {"type": "Point", "coordinates": [-94.73217304209719, -23.592658790075802]}}, {"type": "Feature", "properties": {"norad_id": 28474, "name": "GPS BIIR-13 (PRN 02)", "group": "gnss", "lat": 26.211312084620808, "lon": -7.741153657918112, "alt_km": 20118.202852049777, "timestamp": "2025-12-15T20:48:54.126725+00:00", "meta": {"OBJECT_NAME": "GPS BIIR-13 (PRN 02)", "OBJECT_ID": "2004-045A", "EPOCH": "2025-12-12T12:01:27.782400", "MEAN_MOTION": 2.00569519, "ECCENTRICITY": 0.0170757, "INCLINATION": 55.2408, "RA_OF_ASC_NODE": 332.4152, "ARG_OF_PERICENTER": 309.2412, "MEAN_ANOMALY": 170.6572, "EPHEMERIS_TYPE": 0, "CLASSIFICATION_TYPE": "U", "NORAD_CAT_ID": 28474, "ELEMENT_SET_NO": 999, "REV_AT_EPOCH": 15468, "BSTAR": 0, "MEAN_MOTION_DOT": -8.8e-07, "MEAN_MOTION_DDOT": 0}, "tle": {"line1": "1 28474U 04045A   25346.50101600 -.00000088  00000+0  00000+0 0  9996", "line2": "2 28474  55.2408 332.4152 0170757 309.2412 170.6572  2.00569519154688"}}, "geometry": {"type": "Point", "coordinates": [-7.741153657918112, 26.211312084620808]}}, {"type": "Feature", "properties": {"norad_id": 28874, "name": "GPS BIIRM-1 (PRN 17)", "group": "gnss", "lat": -7.502874598645555, "lon": -84.7244755478703, "alt_km": 19989.392962892496, "timestamp": "2025-12-15T20:48:54.126738+00:00", "meta": {"OBJECT_NAME": "GPS BIIRM-1 (PRN 17)", "OBJECT_ID": "2005-038A", "EPOCH": "2025-12-14T21:27:36.248256", "MEAN_MOTION": 2.00578318, "ECCENTRICITY": 0.01315823, "INCLINATION": 55.03, "RA_OF_ASC_NODE": 280.6141, "ARG_OF_PERICENTER": 293.5769, "MEAN_ANOMALY": 73.3073, "EPHEMERIS_TYPE": 0, "CLASSIFICATION_TYPE": "U", "NORAD_CAT_ID": 28874, "ELEMENT_SET_NO": 999, "REV_AT_EPOCH": 14814, "BSTAR": 0, "MEAN_MOTION_DOT": -7.5e-07, "MEAN_MOTION_DDOT": 0}, "tle": {"line1": "1 28874U 05038A   25348.89416954 -.00000075  00000+0  00000+0 0  9994", "line2": "2 28874  55.0300 280.6141 0131582 293.5769  73.3073  2.00578318148142"}}, "geometry": {"type": "Point", "coordinates": [-84.7244755478703, -7.502874598645555]}}, {"type": "Feature", "properties": {"norad_id": 28899, "name": "INMARSAT 4-F2 (SOUTHPAN/PRN 122)", "group": "gnss", "lat": 3.3194513142407263, "lon": -179.43829037239712, "alt_km": 35785.19176798819, "timestamp": "2025-12-15T20:48:54.126752+00:00", "meta": {"OBJECT_NAME": "INMARSAT 4-F2 (SOUTHPAN/PRN 122)", "OBJECT_ID": "2005-044A", "EPOCH": "2025-12-14T22:39:45.580320", "MEAN_MOTION": 1.00271557, "ECCENTRICITY": 0.00026623, "INCLINATION": 4.8554, "RA_OF_ASC_NODE": 43.6975, "ARG_OF_PERICENTER": 223.7202, "MEAN_ANOMALY": 299.8824, "EPHEMERIS_TYPE": 0, "CLASSIFICATION_TYPE": "U", "NORAD_CAT_ID": 28899, "ELEMENT_SET_NO": 999, "REV_AT_EPOCH": 7367, "BSTAR": 0, "MEAN_MOTION_DOT": -2.44e-06, "MEAN_MOTION_DDOT": 0}, "tle": {"line1": "1 28899U 05044A   25348.94427755 -.00000244  00000+0  00000+0 0  9993", "line2": "2 28899   4.8554  43.6975 0002662 223.7202 299.8824  1.00271557 73675"}}, "geometry": {"type": "Point", "coordinates": [-179.43829037239712, 3.3194513142407263]}}, {"type": "Feature", "properties": {"norad_id": 29486, "name": "GPS BIIRM-2 (PRN 31)", "group": "gnss", "lat": -50.90031811160208, "lon": 39.34532366624675, "alt_km": 20456.18761185041, "timestamp": "2025-12-15T20:48:54.126766+00:00", "meta": {"OBJECT_NAME": "GPS BIIRM-2 (PRN 31)", "OBJECT_ID": "2006-042A", "EPOCH": "2025-12-14T18:28:39.630432", "MEAN_MOTION": 2.00554112, "ECCENTRICITY": 0.01073383, "INCLINATION": 54.6944, "RA_OF_ASC_NODE": 158.6601, "ARG_OF_PERICENTER": 52.0063, "MEAN_ANOMALY": 128.102, "EPHEMERIS_TYPE": 0, "CLASSIFICATION_TYPE": "U", "NORAD_CAT_ID": 29486, "ELEMENT_SET_NO": 999, "REV_AT_EPOCH": 14069, "BSTAR": 0, "MEAN_MOTION_DOT": 1e-06, "MEAN_MOTION_DDOT": 0}, "tle": {"line1": "1 29486U 06042A   25348.76990313  .00000100  00000+0  00000+0 0  9990", "line2": "2 29486  54.6944 158.6601 0107338  52.0063 128.1020  2.00554112140692"}}, "geometry": {"type": "Point", "coordinates": [39.34532366624675, -50.90031811160208]}}, {"type": "Feature", "properties": {"norad_id": 29601, "name": "GPS BIIRM-3 (PRN 12)", "group": "gnss", "lat": -39.143337337555614, "lon": -173.50292435744836, "alt_km": 20357.733705662064, "timestamp": "2025-12-15T20:48:54.126778+00:00", "meta": {"OBJECT_NAME": "GPS BIIRM-3 (PRN 12)", "OBJECT_ID": "2006-052A", "EPOCH": "2025-12-11T22:46:47.068032", "MEAN_MOTION": 2.00573524, "ECCENTRICITY": 0.00877389, "INCLINATION": 54.9707, "RA_OF_ASC_NODE": 221.4296, "ARG_OF_PERICENTER": 87.4221, "MEAN_ANOMALY": 273.6564, "EPHEMERIS_TYPE": 0, "CLASSIFICATION_TYPE": "U", "NORAD_CAT_ID": 29601, "ELEMENT_SET_NO": 999, "REV_AT_EPOCH": 13965, "BSTAR": 0, "MEAN_MOTION_DOT": 9e-08, "MEAN_MOTION_DDOT": 0}, "tle": {"line1": "1 29601U 06052A   25345.94915588  .00000009  00000+0  00000+0 0  9996", "line2": "2 29601  54.9707 221.4296 0087738  87.4221 273.6564  2.00573524139650"}}, "geometry": {"type": "Point", "coordinates": [-173.50292435744836, -39.143337337555614]}}]}